STARLINK-11409 [DTC]    
1 63061U 25035K   25069.89573014 -.00210211  00000+0 -76266-3 0  9998
2 63061  42.9997  51.0330 0001740 273.0695  86.9979 15.88019918  3971
STARLINK-11412 [DTC]    
1 63062U 25035L   25069.95627625 -.00175660  00000+0 -62303-3 0  9999
2 63062  42.9996  50.6244 0001183 277.0854  82.9886 15.88386329  3989
STARLINK-11399 [DTC]    
1 63063U 25035M   25069.89119377 -.00198938  00000+0 -69683-3 0  9994
2 63063  42.9998  50.9961 0001589 281.5543  78.5152 15.88692593  3975
STARLINK-11408 [DTC]    
1 63064U 25035N   25069.88901995 -.00186541  00000+0 -63807-3 0  9998
2 63064  42.9998  50.9776 0001536 234.3568 125.7164 15.89131761  3979
STARLINK-33635          
1 63065U 25035P   25069.91668981 -.01088010  00000+0 -67311-2 0  9994
2 63065  42.9991  51.0797 0001336 286.9195 121.4418 15.78598961  4002
STARLINK-33622          
1 63066U 25035Q   25069.91668981 -.01121732  00000+0 -70161-2 0  9991
2 63066  42.9990  51.0729 0001362 284.3522 126.9518 15.78435303  4003
STARLINK-33628          
1 63067U 25035R   25069.91668981 -.01136547  00000+0 -71384-2 0  9990
2 63067  42.9991  51.0664 0001350 273.3392 140.2253 15.78377962  4004
STARLINK-33627          
1 63068U 25035S   25069.91668981 -.01171423  00000+0 -75408-2 0  9994
2 63068  42.9992  51.0524 0001238 270.3217 149.3691 15.77918154  3995
STARLINK-33620          
1 63069U 25035T   25069.91668981 -.01239843  00000+0 -82464-2 0  9996
2 63069  42.9991  51.0311 0001347 282.9904 144.6727 15.77355765  3993
STARLINK-33604          
1 63070U 25035U   25069.91668981 -.01145283  00000+0 -72860-2 0  9991
2 63070  42.9990  51.0582 0001637 281.4443 135.3895 15.78113576  3994
STARLINK-33624          
1 63071U 25035V   25069.91668981 -.01200451  00000+0 -78179-2 0  9990
2 63071  42.9991  51.0445 0001244 271.5315 150.9229 15.77729731  3894
STARLINK-33623          
1 63072U 25035W   25069.91668981 -.01229287  00000+0 -81081-2 0  9995
2 63072  42.9990  51.0364 0001315 268.9501 156.2551 15.77516092  4005
STARLINK-33586          
1 63073U 25035X   25069.91668981 -.01245912  00000+0 -83136-2 0  9992
2 63073  42.9991  51.0242 0001360 284.2971 145.4699 15.77298465  4008
STARLINK-33605          
1 63074U 25035Y   25069.91668981 -.01279670  00000+0 -84807-2 0  9997
2 63074  42.9990  51.0178 0001379 284.8504 147.4818 15.77079277  3994
STARLINK-32839          
1 63077U 25037A   25069.91668981 -.00820271  00000+0 -39083-2 0  9996
2 63077  69.9905 207.6382 0004112 281.0771  99.0218 15.84534379  3668
STARLINK-32821          
1 63078U 25037B   25069.91668981 -.00824458  00000+0 -39305-2 0  9995
2 63078  69.9906 207.6346 0004064 282.8246 100.3109 15.84532990  3552
STARLINK-32817          
1 63079U 25037C   25069.91668981 -.00833622  00000+0 -39806-2 0  9995
2 63079  69.9904 207.6298 0004043 282.2566 104.8611 15.84521354  3620
STARLINK-32906          
1 63080U 25037D   25069.91668981 -.00866789  00000+0 -41507-2 0  9998
2 63080  69.9903 207.6229 0004159 280.0910 112.6273 15.84539480  3723
STARLINK-32895          
1 63081U 25037E   25069.91668981 -.00858997  00000+0 -41116-2 0  9997
2 63081  69.9899 207.6256 0004124 280.6640 109.6009 15.84530517  3574
STARLINK-32933          
1 63082U 25037F   25069.91668981 -.00871796  00000+0 -41811-2 0  9992
2 63082  69.9903 207.6153 0004029 282.1319 117.0860 15.84521199  3676
STARLINK-32932          
1 63083U 25037G   25069.91668981 -.00881533  00000+0 -42300-2 0  9997
2 63083  69.9904 207.6192 0004061 280.0769 116.1989 15.84533085  3526
STARLINK-32908          
1 63084U 25037H   25069.91668981 -.00884929  00000+0 -42578-2 0  9997
2 63084  69.9902 207.6061 0003993 283.1516 123.7980 15.84485799  3418
STARLINK-32505          
1 63085U 25037J   25069.91668981 -.00887080  00000+0 -42660-2 0  9991
2 63085  69.9904 207.6102 0004056 281.7653 121.7148 15.84500550  3679
STARLINK-32914          
1 63086U 25037K   25069.91668981 -.00891360  00000+0 -42955-2 0  9995
2 63086  69.9903 207.6015 0003976 284.4867 126.3684 15.84468608  3728
STARLINK-32918          
1 63087U 25037L   25069.91668981 -.00910074  00000+0 -43962-2 0  9999
2 63087  69.9904 207.5977 0004066 282.4641 132.0557 15.84462227  3729
STARLINK-32912          
1 63088U 25037M   25069.91668981 -.00909210  00000+0 -43891-2 0  9991
2 63088  69.9904 207.5951 0004037 282.6507 133.9672 15.84474421  3720
STARLINK-32910          
1 63089U 25037N   25069.91668981 -.00941555  00000+0 -45628-2 0  9990
2 63089  69.9905 207.5906 0004063 281.6741 138.6137 15.84471441  3727
STARLINK-32903          
1 63090U 25037P   25069.91668981 -.00944031  00000+0 -45789-2 0  9992
2 63090  69.9904 207.5872 0003987 283.2194 140.1809 15.84459851  3369
STARLINK-32925          
1 63091U 25037Q   25069.91668981 -.00951299  00000+0 -46237-2 0  9996
2 63091  69.9906 207.5828 0003974 283.3873 143.8109 15.84434549  3678
STARLINK-32924          
1 63092U 25037R   25069.91668981 -.00957864  00000+0 -46637-2 0  9995
2 63092  69.9906 207.5785 0003926 282.8744 147.8787 15.84414958  3723
