OBJECT_NAME,OBJECT_ID,EPOCH,MEAN_MOTION,ECCENTRICITY,INCLINATION,RA_OF_ASC_NODE,ARG_OF_PERICENTER,MEAN_ANOMALY,EPHEMERIS_TYPE,CLASSIFICATION_TYPE,NORAD_CAT_ID,ELEMENT_SET_NO,REV_AT_EPOCH,BSTAR,MEAN_MOTION_DOT,MEAN_MOTION_DDOT
STARLINK-11409 [DTC],2025-035K,2025-03-10T21:29:51.084096,15.88019918,.000174,42.9997,51.0330,273.0695,86.9979,0,U,63061,999,397,-.76266E-3,-.210211E-2,0
STARLINK-11412 [DTC],2025-035L,2025-03-10T22:57:02.268000,15.88386329,.0001183,42.9996,50.6244,277.0854,82.9886,0,U,63062,999,398,-.62303E-3,-.17566E-2,0
STARLINK-11399 [DTC],2025-035M,2025-03-10T21:23:19.141728,15.88692593,.0001589,42.9998,50.9961,281.5543,78.5152,0,U,63063,999,397,-.69683E-3,-.198938E-2,0
STARLINK-11408 [DTC],2025-035N,2025-03-10T21:20:11.323680,15.89131761,.0001536,42.9998,50.9776,234.3568,125.7164,0,U,63064,999,397,-.63807E-3,-.186541E-2,0
STARLINK-33635,2025-035P,2025-03-10T22:00:01.999584,15.78598961,.0001336,42.9991,51.0797,286.9195,121.4418,0,U,63065,999,400,-.67311E-2,-.108801E-1,0
STARLINK-33622,2025-035Q,2025-03-10T22:00:01.999584,15.78435303,.0001362,42.9990,51.0729,284.3522,126.9518,0,U,63066,999,400,-.70161E-2,-.1121732E-1,0
STARLINK-33628,2025-035R,2025-03-10T22:00:01.999584,15.78377962,.000135,42.9991,51.0664,273.3392,140.2253,0,U,63067,999,400,-.71384E-2,-.1136547E-1,0
STARLINK-33627,2025-035S,2025-03-10T22:00:01.999584,15.77918154,.0001238,42.9992,51.0524,270.3217,149.3691,0,U,63068,999,399,-.75408E-2,-.1171423E-1,0
STARLINK-33620,2025-035T,2025-03-10T22:00:01.999584,15.77355765,.0001347,42.9991,51.0311,282.9904,144.6727,0,U,63069,999,399,-.82464E-2,-.1239843E-1,0
STARLINK-33604,2025-035U,2025-03-10T22:00:01.999584,15.78113576,.0001637,42.9990,51.0582,281.4443,135.3895,0,U,63070,999,399,-.7286E-2,-.1145283E-1,0
STARLINK-33624,2025-035V,2025-03-10T22:00:01.999584,15.77729731,.0001244,42.9991,51.0445,271.5315,150.9229,0,U,63071,999,389,-.78179E-2,-.1200451E-1,0
STARLINK-33623,2025-035W,2025-03-10T22:00:01.999584,15.77516092,.0001315,42.9990,51.0364,268.9501,156.2551,0,U,63072,999,400,-.81081E-2,-.1229287E-1,0
STARLINK-33586,2025-035X,2025-03-10T22:00:01.999584,15.77298465,.000136,42.9991,51.0242,284.2971,145.4699,0,U,63073,999,400,-.83136E-2,-.1245912E-1,0
STARLINK-33605,2025-035Y,2025-03-10T22:00:01.999584,15.77079277,.0001379,42.9990,51.0178,284.8504,147.4818,0,U,63074,999,399,-.84807E-2,-.127967E-1,0
STARLINK-32839,2025-037A,2025-03-10T22:00:01.999584,15.84534379,.0004112,69.9905,207.6382,281.0771,99.0218,0,U,63077,999,366,-.39083E-2,-.820271E-2,0
STARLINK-32821,2025-037B,2025-03-10T22:00:01.999584,15.84532990,.0004064,69.9906,207.6346,282.8246,100.3109,0,U,63078,999,355,-.39305E-2,-.824458E-2,0
STARLINK-32817,2025-037C,2025-03-10T22:00:01.999584,15.84521354,.0004043,69.9904,207.6298,282.2566,104.8611,0,U,63079,999,362,-.39806E-2,-.833622E-2,0
STARLINK-32906,2025-037D,2025-03-10T22:00:01.999584,15.84539480,.0004159,69.9903,207.6229,280.0910,112.6273,0,U,63080,999,372,-.41507E-2,-.866789E-2,0
STARLINK-32895,2025-037E,2025-03-10T22:00:01.999584,15.84530517,.0004124,69.9899,207.6256,280.6640,109.6009,0,U,63081,999,357,-.41116E-2,-.858997E-2,0
STARLINK-32933,2025-037F,2025-03-10T22:00:01.999584,15.84521199,.0004029,69.9903,207.6153,282.1319,117.0860,0,U,63082,999,367,-.41811E-2,-.871796E-2,0
STARLINK-32932,2025-037G,2025-03-10T22:00:01.999584,15.84533085,.0004061,69.9904,207.6192,280.0769,116.1989,0,U,63083,999,352,-.423E-2,-.881533E-2,0
STARLINK-32908,2025-037H,2025-03-10T22:00:01.999584,15.84485799,.0003993,69.9902,207.6061,283.1516,123.7980,0,U,63084,999,341,-.42578E-2,-.884929E-2,0
STARLINK-32505,2025-037J,2025-03-10T22:00:01.999584,15.84500550,.0004056,69.9904,207.6102,281.7653,121.7148,0,U,63085,999,367,-.4266E-2,-.88708E-2,0
STARLINK-32914,2025-037K,2025-03-10T22:00:01.999584,15.84468608,.0003976,69.9903,207.6015,284.4867,126.3684,0,U,63086,999,372,-.42955E-2,-.89136E-2,0
STARLINK-32918,2025-037L,2025-03-10T22:00:01.999584,15.84462227,.0004066,69.9904,207.5977,282.4641,132.0557,0,U,63087,999,372,-.43962E-2,-.910074E-2,0
STARLINK-32912,2025-037M,2025-03-10T22:00:01.999584,15.84474421,.0004037,69.9904,207.5951,282.6507,133.9672,0,U,63088,999,372,-.43891E-2,-.90921E-2,0
STARLINK-32910,2025-037N,2025-03-10T22:00:01.999584,15.84471441,.0004063,69.9905,207.5906,281.6741,138.6137,0,U,63089,999,372,-.45628E-2,-.941555E-2,0
STARLINK-32903,2025-037P,2025-03-10T22:00:01.999584,15.84459851,.0003987,69.9904,207.5872,283.2194,140.1809,0,U,63090,999,336,-.45789E-2,-.944031E-2,0
STARLINK-32925,2025-037Q,2025-03-10T22:00:01.999584,15.84434549,.0003974,69.9906,207.5828,283.3873,143.8109,0,U,63091,999,367,-.46237E-2,-.951299E-2,0
STARLINK-32924,2025-037R,2025-03-10T22:00:01.999584,15.84414958,.0003926,69.9906,207.5785,282.8744,147.8787,0,U,63092,999,372,-.46637E-2,-.957864E-2,0
